{
  "type": "FeatureCollection",
  "features": [
    {
      "type": "Feature",
      "properties": {
        "norad_id": 66496,
        "name": "STARLINK-35909",
        "group": "last-30-days",
        "lat": 42.18902137701107,
        "lon": -133.8828783334339,
        "alt_km": 409.1323242042281,
        "timestamp": "2025-12-13T03:42:10.036115+00:00",
        "meta_object_name": "STARLINK-35909",
        "meta_object_id": "2025-263M",
        "meta_epoch": "2025-12-12T00:00:04.999968",
        "meta_mean_motion": 15.50511169,
        "meta_eccentricity": 0.00016285,
        "meta_inclination": 43.0003,
        "meta_ra_of_asc_node": 129.4454,
        "meta_arg_of_pericenter": 276.5944,
        "meta_mean_anomaly": 212.5393,
        "meta_ephemeris_type": 0,
        "meta_classification_type": "U",
        "meta_norad_cat_id": 66496,
        "meta_element_set_no": 999,
        "meta_rev_at_epoch": 551,
        "meta_bstar": 0.0011925225,
        "meta_mean_motion_dot": 0.00070077,
        "meta_mean_motion_ddot": 0,
        "tle_line1": "1 66496U 25263M   25346.00005787  .00070077  00000+0  11925-2 0  9996",
        "tle_line2": "2 66496  43.0003 129.4454 0001628 276.5944 212.5393 15.50511169  5516"
      },
      "geometry": {
        "type": "Point",
        "coordinates": [
          -133.8828783334339,
          42.18902137701107
        ]
      }
    },
    {
      "type": "Feature",
      "properties": {
        "norad_id": 66497,
        "name": "STARLINK-35899",
        "group": "last-30-days",
        "lat": 41.84749844926975,
        "lon": -131.27533332557627,
        "alt_km": 409.11631831630257,
        "timestamp": "2025-12-13T03:42:10.036125+00:00",
        "meta_object_name": "STARLINK-35899",
        "meta_object_id": "2025-263N",
        "meta_epoch": "2025-12-12T00:00:04.999968",
        "meta_mean_motion": 15.50504116,
        "meta_eccentricity": 0.00016468,
        "meta_inclination": 43.0004,
        "meta_ra_of_asc_node": 129.4407,
        "meta_arg_of_pericenter": 278.3763,
        "meta_mean_anomaly": 212.6859,
        "meta_ephemeris_type": 0,
        "meta_classification_type": "U",
        "meta_norad_cat_id": 66497,
        "meta_element_set_no": 999,
        "meta_rev_at_epoch": 551,
        "meta_bstar": 0.0014363781,
        "meta_mean_motion_dot": 0.00084614,
        "meta_mean_motion_ddot": 0,
        "tle_line1": "1 66497U 25263N   25346.00005787  .00084614  00000+0  14364-2 0  9999",
        "tle_line2": "2 66497  43.0004 129.4407 0001646 278.3763 212.6859 15.50504116  5517"
      },
      "geometry": {
        "type": "Point",
        "coordinates": [
          -131.27533332557627,
          41.84749844926975
        ]
      }
    },
    {
      "type": "Feature",
      "properties": {
        "norad_id": 66498,
        "name": "STARLINK-35907",
        "group": "last-30-days",
        "lat": 2.0925836356091456,
        "lon": 125.17339497538725,
        "alt_km": 443.3807045972426,
        "timestamp": "2025-12-13T03:42:10.036135+00:00",
        "meta_object_name": "STARLINK-35907",
        "meta_object_id": "2025-263P",
        "meta_epoch": "2025-12-12T06:00:00.999648",
        "meta_mean_motion": 15.40657014,
        "meta_eccentricity": 0.00014721,
        "meta_inclination": 43.0003,
        "meta_ra_of_asc_node": 128.1388,
        "meta_arg_of_pericenter": 250.4984,
        "meta_mean_anomaly": 130.9541,
        "meta_ephemeris_type": 0,
        "meta_classification_type": "U",
        "meta_norad_cat_id": 66498,
        "meta_element_set_no": 999,
        "meta_rev_at_epoch": 555,
        "meta_bstar": 0.0025024977,
        "meta_mean_motion_dot": 0.00105538,
        "meta_mean_motion_ddot": 0,
        "tle_line1": "1 66498U 25263P   25346.25001157  .00105538  00000+0  25025-2 0  9999",
        "tle_line2": "2 66498  43.0003 128.1388 0001472 250.4984 130.9541 15.40657014  5553"
      },
      "geometry": {
        "type": "Point",
        "coordinates": [
          125.17339497538725,
          2.0925836356091456
        ]
      }
    },
    {
      "type": "Feature",
      "properties": {
        "norad_id": 66499,
        "name": "STARLINK-35816",
        "group": "last-30-days",
        "lat": 25.932225954582563,
        "lon": 154.29098365301252,
        "alt_km": 441.8240160163841,
        "timestamp": "2025-12-13T03:42:10.036147+00:00",
        "meta_object_name": "STARLINK-35816",
        "meta_object_id": "2025-263Q",
        "meta_epoch": "2025-12-12T06:00:00.999648",
        "meta_mean_motion": 15.40838942,
        "meta_eccentricity": 0.0001659,
        "meta_inclination": 43.0005,
        "meta_ra_of_asc_node": 128.0478,
        "meta_arg_of_pericenter": 259.9228,
        "meta_mean_anomaly": 158.8637,
        "meta_ephemeris_type": 0,
        "meta_classification_type": "U",
        "meta_norad_cat_id": 66499,
        "meta_element_set_no": 999,
        "meta_rev_at_epoch": 555,
        "meta_bstar": -0.0065790275,
        "meta_mean_motion_dot": -0.00266974,
        "meta_mean_motion_ddot": 0,
        "tle_line1": "1 66499U 25263Q   25346.25001157 -.00266974  00000+0 -65790-2 0  9997",
        "tle_line2": "2 66499  43.0005 128.0478 0001659 259.9228 158.8637 15.40838942  5553"
      },
      "geometry": {
        "type": "Point",
        "coordinates": [
          154.29098365301252,
          25.932225954582563
        ]
      }
    },
    {
      "type": "Feature",
      "properties": {
        "norad_id": 66500,
        "name": "STARLINK-35894",
        "group": "last-30-days",
        "lat": -14.766560433481766,
        "lon": 106.55735846359187,
        "alt_km": 444.9890797067719,
        "timestamp": "2025-12-13T03:42:10.036157+00:00",
        "meta_object_name": "STARLINK-35894",
        "meta_object_id": "2025-263R",
        "meta_epoch": "2025-12-12T06:00:00.999648",
        "meta_mean_motion": 15.40695565,
        "meta_eccentricity": 0.00019062,
        "meta_inclination": 43.0003,
        "meta_ra_of_asc_node": 128.2004,
        "meta_arg_of_pericenter": 269.3169,
        "meta_mean_anomaly": 87.3182,
        "meta_ephemeris_type": 0,
        "meta_classification_type": "U",
        "meta_norad_cat_id": 66500,
        "meta_element_set_no": 999,
        "meta_rev_at_epoch": 555,
        "meta_bstar": -0.00025581078,
        "meta_mean_motion_dot": -0.00010973,
        "meta_mean_motion_ddot": 0,
        "tle_line1": "1 66500U 25263R   25346.25001157 -.00010973  00000+0 -25581-3 0  9991",
        "tle_line2": "2 66500  43.0003 128.2004 0001906 269.3169  87.3182 15.40695565  5558"
      },
      "geometry": {
        "type": "Point",
        "coordinates": [
          106.55735846359187,
          -14.766560433481766
        ]
      }
    },
    {
      "type": "Feature",
      "properties": {
        "norad_id": 66501,
        "name": "STARLINK-35897",
        "group": "last-30-days",
        "lat": 38.24836198935138,
        "lon": -179.45245603772608,
        "alt_km": 440.6160761879064,
        "timestamp": "2025-12-13T03:42:10.036168+00:00",
        "meta_object_name": "STARLINK-35897",
        "meta_object_id": "2025-263S",
        "meta_epoch": "2025-12-12T06:00:00.999648",
        "meta_mean_motion": 15.4411138,
        "meta_eccentricity": 0.00016335,
        "meta_inclination": 43.0006,
        "meta_ra_of_asc_node": 127.9998,
        "meta_arg_of_pericenter": 273.1578,
        "meta_mean_anomaly": 165.8641,
        "meta_ephemeris_type": 0,
        "meta_classification_type": "U",
        "meta_norad_cat_id": 66501,
        "meta_element_set_no": 999,
        "meta_rev_at_epoch": 555,
        "meta_bstar": -0.048532274,
        "meta_mean_motion_dot": -0.02023978,
        "meta_mean_motion_ddot": 0,
        "tle_line1": "1 66501U 25263S   25346.25001157 -.02023978  00000+0 -48532-1 0  9992",
        "tle_line2": "2 66501  43.0006 127.9998 0001633 273.1578 165.8641 15.44111380  5558"
      },
      "geometry": {
        "type": "Point",
        "coordinates": [
          -179.45245603772608,
          38.24836198935138
        ]
      }
    },
    {
      "type": "Feature",
      "properties": {
        "norad_id": 66502,
        "name": "STARLINK-35922",
        "group": "last-30-days",
        "lat": 38.06674818773215,
        "lon": -114.53258905140446,
        "alt_km": 409.82386840274194,
        "timestamp": "2025-12-13T03:42:10.036178+00:00",
        "meta_object_name": "STARLINK-35922",
        "meta_object_id": "2025-263T",
        "meta_epoch": "2025-12-12T00:00:04.999968",
        "meta_mean_motion": 15.50508444,
        "meta_eccentricity": 0.00017133,
        "meta_inclination": 43.0003,
        "meta_ra_of_asc_node": 129.4062,
        "meta_arg_of_pericenter": 276.5913,
        "meta_mean_anomaly": 227.8901,
        "meta_ephemeris_type": 0,
        "meta_classification_type": "U",
        "meta_norad_cat_id": 66502,
        "meta_element_set_no": 999,
        "meta_rev_at_epoch": 551,
        "meta_bstar": 0.0011848689,
        "meta_mean_motion_dot": 0.00069615,
        "meta_mean_motion_ddot": 0,
        "tle_line1": "1 66502U 25263T   25346.00005787  .00069615  00000+0  11849-2 0  9995",
        "tle_line2": "2 66502  43.0003 129.4062 0001713 276.5913 227.8901 15.50508444  5516"
      },
      "geometry": {
        "type": "Point",
        "coordinates": [
          -114.53258905140446,
          38.06674818773215
        ]
      }
    }
  ]
}